NORAD_CAT_ID,OBJECT_NAME,OBJECT_TYPE,EPOCH,MEAN_MOTION,ECCENTRICITY,INCLINATION,RA_OF_ASC_NODE,ARG_OF_PERICENTER,MEAN_ANOMALY,BSTAR,MEAN_MOTION_DOT,MEAN_MOTION_DDOT,TLE_LINE0,TLE_LINE1,TLE_LINE2,SEMIMAJOR_AXIS,PERIOD,APOGEE,PERIGEE,DECAYED
55927.0,STARLINK-5919,PAYLOAD,2024-08-03 11:55:44,14.98340162,0.0003057,70.0019,334.7689,273.1701,86.9109,5.2487e-05,5.33e-06,0.0,0 STARLINK-5919,1 55927U 23037P   24216.49704718  .00000533  00000-0  52487-4 0  9999,2 55927  70.0019 334.7689 0003057 273.1701  86.9109 14.98340162 76478,6950.161,96.106,574.151,569.902,0.0
55927.0,STARLINK-5919,PAYLOAD,2024-08-03 15:08:00,14.98346027,0.0003037,70.0015,334.4322,271.0645,89.0166,7.2672e-05,7.75e-06,0.0,0 STARLINK-5919,1 55927U 23037P   24216.63056205  .00000775  00000-0  72672-4 0  9992,2 55927  70.0015 334.4322 0003037 271.0645  89.0166 14.98346027 76155,6950.143,96.106,574.119,569.898,0.0
55927.0,STARLINK-5919,PAYLOAD,2024-08-03 18:20:16,14.98351306,0.0003014,70.0015,334.0955,271.0124,89.069,0.0001434,1.619e-05,0.0,0 STARLINK-5919,1 55927U 23037P   24216.76407671  .00001619  00000-0  14340-3 0  9998,2 55927  70.0015 334.0955 0003014 271.0124  89.0690 14.98351306 76518,6950.127,96.106,574.087,569.897,0.0
55927.0,STARLINK-5919,PAYLOAD,2024-08-04 13:33:53,14.98335064,0.0002664,70.0041,332.075,268.8365,91.2489,0.00025215,2.917e-05,0.0,0 STARLINK-5919,1 55927U 23037P   24217.56520532  .00002917  00000-0  25215-3 0  9994,2 55927  70.0041 332.0750 0002664 268.8365  91.2489 14.98335064 76636,6950.177,96.107,573.894,570.191,0.0
55927.0,STARLINK-5919,PAYLOAD,2024-08-04 16:46:09,14.98338148,0.0002623,70.0041,331.7386,269.0386,91.0472,0.00025494,2.951e-05,0.0,0 STARLINK-5919,1 55927U 23037P   24217.69872317  .00002951  00000-0  25494-3 0  9996,2 55927  70.0041 331.7386 0002623 269.0386  91.0472 14.98338148 76319,6950.168,96.106,573.856,570.21,0.0
55927.0,STARLINK-5919,PAYLOAD,2024-08-05 13:35:54,14.98339537,0.0003307,70.0013,329.5516,278.9839,81.0946,6.1855e-05,6.45e-06,0.0,0 STARLINK-5919,1 55927U 23037P   24218.56659946  .00000645  00000-0  61855-4 0  9994,2 55927  70.0013 329.5516 0003307 278.9839  81.0946 14.98339537 76789,6950.163,96.106,574.327,569.73,0.0
55927.0,STARLINK-5919,PAYLOAD,2024-08-05 16:48:10,14.9833706,0.0002962,70.0019,329.2149,271.6116,88.4704,3.4443e-05,3.18e-06,0.0,0 STARLINK-5919,1 55927U 23037P   24218.70012016  .00000318  00000-0  34443-4 0  9991,2 55927  70.0019 329.2149 0002962 271.6116  88.4704 14.98337060 76465,6950.171,96.107,574.095,569.977,0.0
55927.0,STARLINK-5919,PAYLOAD,2024-08-06 13:37:56,14.98322722,0.0003098,70.0011,327.0251,266.231,93.8495,-0.00010131,-1.301e-05,0.0,0 STARLINK-5919,1 55927U 23037P   24219.56801253 -.00001301  00000-0 -10131-3 0  9997,2 55927  70.0011 327.0251 0003098 266.2310  93.8495 14.98322722 76932,6950.215,96.107,574.234,569.927,0.0
55927.0,STARLINK-5919,PAYLOAD,2024-08-06 16:50:12,14.98324891,0.0003029,70.0014,326.6889,266.2502,93.8311,-6.4183e-05,-8.59e-06,0.0,0 STARLINK-5919,1 55927U 23037P   24219.70153110 -.00000859  00000-0 -64183-4 0  9999,2 55927  70.0014 326.6889 0003029 266.2502  93.8311 14.98324891 76615,6950.209,96.107,574.179,569.968,0.0
55927.0,STARLINK-5919,PAYLOAD,2024-08-07 10:27:41,14.98324635,0.0002855,70.0017,324.8387,264.186,95.8973,7.422e-05,7.93e-06,0.0,0 STARLINK-5919,1 55927U 23037P   24220.43589795  .00000793  00000-0  74220-4 0  9991,2 55927  70.0017 324.8387 0002855 264.1860  95.8973 14.98324635 76725,6950.209,96.107,574.059,570.09,0.0
55927.0,STARLINK-5919,PAYLOAD,2024-08-07 16:52:13,14.98334247,0.0003046,70.0011,324.1656,273.2712,86.8099,0.00014002,1.578e-05,0.0,0 STARLINK-5919,1 55927U 23037P   24220.70293242  .00001578  00000-0  14002-3 0  9993,2 55927  70.0011 324.1656 0003046 273.2712  86.8099 14.98334247 77103,6950.18,96.107,574.162,569.928,0.0
55927.0,STARLINK-5919,PAYLOAD,2024-08-08 13:41:56,14.98356296,0.0002634,70.0022,321.9758,254.2428,105.8441,0.00065295,7.712e-05,0.0,0 STARLINK-5919,1 55927U 23037P   24221.57078789  .00007712  00000-0  65295-3 0  9992,2 55927  70.0022 321.9758 0002634 254.2428 105.8441 14.98356296 76894,6950.112,96.105,573.807,570.146,0.0
55927.0,STARLINK-5919,PAYLOAD,2024-08-08 16:54:12,14.98364712,0.0002465,70.0042,321.6405,253.3901,106.6987,0.00096538,0.00011455,0.0,0 STARLINK-5919,1 55927U 23037P   24221.70431388  .00011455  00000-0  96538-3 0  9998,2 55927  70.0042 321.6405 0002465 253.3901 106.6987 14.98364712 77257,6950.086,96.105,573.664,570.237,0.0
55927.0,STARLINK-5919,PAYLOAD,2024-08-09 05:43:17,14.98345352,0.0003446,70.0003,320.2944,278.0357,82.0411,-5.3857e-05,-7.36e-06,0.0,0 STARLINK-5919,1 55927U 23037P   24222.23840093 -.00000736  00000-0 -53857-4 0  9994,2 55927  70.0003 320.2944 0003446 278.0357  82.0411 14.98345352 77333,6950.145,96.106,574.405,569.615,0.0
55927.0,STARLINK-5919,PAYLOAD,2024-08-09 13:43:57,14.98339229,0.0003285,70.0012,319.4495,273.4389,86.6394,-0.00027081,-3.324e-05,0.0,0 STARLINK-5919,1 55927U 23037P   24222.57219834 -.00003324  00000-0 -27081-3 0  9999,2 55927  70.0012 319.4495 0003285 273.4389  86.6394 14.98339229 77043,6950.164,96.106,574.312,569.746,0.0
55927.0,STARLINK-5919,PAYLOAD,2024-08-09 15:20:05,14.98341379,0.0003188,70.0014,319.2815,272.3918,87.6876,-0.00020876,-2.584e-05,0.0,0 STARLINK-5919,1 55927U 23037P   24222.63895685 -.00002584  00000-0 -20876-3 0  9992,2 55927  70.0014 319.2815 0003188 272.3918  87.6876 14.98341379 77053,6950.158,96.106,574.238,569.807,0.0
55927.0,STARLINK-5919,PAYLOAD,2024-08-10 12:09:51,14.98329379,0.000277,70.0032,317.0954,268.8918,91.1924,-0.00025707,-3.159e-05,0.0,0 STARLINK-5919,1 55927U 23037P   24223.50684096 -.00003159  00000-0 -25707-3 0  9998,2 55927  70.0032 317.0954 0002770 268.8918  91.1924 14.98329379 77521,6950.195,96.107,573.985,570.135,0.0
55927.0,STARLINK-5919,PAYLOAD,2024-08-10 13:45:59,14.98330962,0.0002622,70.0034,316.9274,262.5998,97.4863,-0.00017685,-2.202e-05,0.0,0 STARLINK-5919,1 55927U 23037P   24223.57360032 -.00002202  00000-0 -17685-3 0  9990,2 55927  70.0034 316.9274 0002622 262.5998  97.4863 14.98330962 77195,6950.19,96.107,573.877,570.233,0.0
55927.0,STARLINK-5919,PAYLOAD,2024-08-10 15:22:07,14.98332938,0.0002459,70.0042,316.7607,249.2791,110.8105,-7.9391e-05,-1.04e-05,0.0,0 STARLINK-5919,1 55927U 23037P   24223.64035955 -.00001040  00000-0 -79391-4 0  9993,2 55927  70.0042 316.7607 0002459 249.2791 110.8105 14.98332938 77209,6950.184,96.107,573.758,570.34,0.0
55927.0,STARLINK-5919,PAYLOAD,2024-08-11 12:11:52,14.98331283,0.0003019,70.0017,314.5689,260.975,99.1068,0.00035603,4.158e-05,0.0,0 STARLINK-5919,1 55927U 23037P   24224.50824395  .00004158  00000-0  35603-3 0  9991,2 55927  70.0017 314.5689 0003019 260.9750  99.1068 14.98331283 77675,6950.189,96.107,574.152,569.956,0.0
55927.0,STARLINK-5919,PAYLOAD,2024-08-11 23:24:47,14.98350257,0.0003776,70.0031,313.3933,265.6199,94.4528,0.00072652,8.591e-05,0.0,0 STARLINK-5919,1 55927U 23037P   24224.97555451  .00008591  00000-0  72652-3 0  9996,2 55927  70.0031 313.3933 0003776 265.6199  94.4528 14.98350257 77748,6950.13,96.106,574.62,569.371,0.0
55927.0,STARLINK-5919,PAYLOAD,2024-08-12 12:13:51,14.9836341,0.0003205,70.0009,312.0439,271.2873,88.7919,0.0008508,0.00010082,0.0,0 STARLINK-5919,1 55927U 23037P   24225.50962677  .00010082  00000-0  85080-3 0  9995,2 55927  70.0009 312.0439 0003205 271.2873  88.7919 14.98363410 77485,6950.09,96.105,574.182,569.727,0.0
55927.0,STARLINK-5919,PAYLOAD,2024-08-12 15:26:07,14.98368228,0.0002858,70.0012,311.7077,272.0419,88.0413,0.00088906,0.00010542,0.0,0 STARLINK-5919,1 55927U 23037P   24225.64314288  .00010542  00000-0  88906-3 0  9990,2 55927  70.0012 311.7077 0002858 272.0419  88.0413 14.98368228 77508,6950.075,96.105,573.926,569.953,0.0
55927.0,STARLINK-5919,PAYLOAD,2024-08-13 12:15:53,14.98322734,0.0002735,70.0018,309.5189,263.4955,96.5893,-0.00046355,-5.618e-05,0.0,0 STARLINK-5919,1 55927U 23037P   24226.51103594 -.00005618  00000-0 -46355-3 0  9995,2 55927  70.0018 309.5189 0002735 263.4955  96.5893 14.98322734 77975,6950.215,96.107,573.981,570.179,0.0
55927.0,STARLINK-5919,PAYLOAD,2024-08-13 15:28:09,14.98322478,0.000275,70.0017,309.1822,263.7052,96.3794,-0.00041248,-5.01e-05,0.0,0 STARLINK-5919,1 55927U 23037P   24226.64455679 -.00005010  00000-0 -41248-3 0  9995,2 55927  70.0017 309.1822 0002750 263.7052  96.3794 14.98322478 77650,6950.216,96.107,573.992,570.17,0.0
55927.0,STARLINK-5919,PAYLOAD,2024-08-14 12:17:55,14.98312192,0.0002893,70.002,306.9945,266.3784,93.7044,0.00028989,3.366e-05,0.0,0 STARLINK-5919,1 55927U 23037P   24227.51245026  .00003366  00000-0  28989-3 0  9992,2 55927  70.0020 306.9945 0002893 266.3784  93.7044 14.98312192 78128,6950.248,96.108,574.124,570.102,0.0
55927.0,STARLINK-5919,PAYLOAD,2024-08-14 13:54:03,14.98311692,0.0002874,70.0019,306.8263,266.3462,93.7368,0.00030825,3.585e-05,0.0,0 STARLINK-5919,1 55927U 23037P   24227.57921157  .00003585  00000-0  30825-3 0  9999,2 55927  70.0019 306.8263 0002874 266.3462  93.7368 14.98311692 77795,6950.25,96.108,574.112,570.117,0.0
55927.0,STARLINK-5919,PAYLOAD,2024-08-14 15:30:12,14.98312583,0.0002855,70.0019,306.658,266.2547,93.8285,0.00035805,4.18e-05,0.0,0 STARLINK-5919,1 55927U 23037P   24227.64597239  .00004180  00000-0  35805-3 0  9992,2 55927  70.0019 306.6580 0002855 266.2547  93.8285 14.98312583 77808,6950.247,96.108,574.096,570.127,0.0
55927.0,STARLINK-5919,PAYLOAD,2024-08-15 09:07:40,14.9833623,0.000287,70.0021,304.8066,267.5896,92.4935,0.00087516,0.00010366,0.0,0 STARLINK-5919,1 55927U 23037P   24228.38033145  .00010366  00000-0  87516-3 0  9994,2 55927  70.0021 304.8066 0002870 267.5896  92.4935 14.98336230 77912,6950.174,96.107,574.033,570.044,0.0
55927.0,STARLINK-5919,PAYLOAD,2024-08-15 21:56:44,14.98346873,0.000281,70.0022,303.4601,269.0848,90.9989,0.00076546,9.056e-05,0.0,0 STARLINK-5919,1 55927U 23037P   24228.91440663  .00009056  00000-0  76546-3 0  9995,2 55927  70.0022 303.4601 0002810 269.0848  90.9989 14.98346873 77995,6950.141,96.106,573.959,570.053,0.0
